[{"OBJECT_NAME":"STARLINK-3791","OBJECT_ID":"2022-041J","EPOCH":"2026-03-09T11:52:31.376640","MEAN_MOTION":15.08839939,"ECCENTRICITY":0.00013718,"INCLINATION":53.2168,"RA_OF_ASC_NODE":109.9949,"ARG_OF_PERICENTER":89.2886,"MEAN_ANOMALY":270.8264,"EPHEMERIS_TYPE":0,"CLASSIFICATION_TYPE":"U","NORAD_CAT_ID":52269,"ELEMENT_SET_NO":999,"REV_AT_EPOCH":21433,"BSTAR":3.3938426e-5,"MEAN_MOTION_DOT":2.52e-6,"MEAN_MOTION_DDOT":0},{"OBJECT_NAME":"CZ-2D DEB","OBJECT_ID":"2017-060C","EPOCH":"2026-03-09T12:36:22.356864","MEAN_MOTION":15.07716497,"ECCENTRICITY":0.0018685,"INCLINATION":98.2453,"RA_OF_ASC_NODE":267.9231,"ARG_OF_PERICENTER":71.2095,"MEAN_ANOMALY":289.1156,"EPHEMERIS_TYPE":0,"CLASSIFICATION_TYPE":"U","NORAD_CAT_ID":44610,"ELEMENT_SET_NO":999,"REV_AT_EPOCH":45422,"BSTAR":0.00057216024,"MEAN_MOTION_DOT":8.702e-5,"MEAN_MOTION_DDOT":0}]
